CCSDS_OMM_VERS = 2.0
CREATION_DATE  = 
ORIGINATOR     = 

OBJECT_NAME    = ALOS (DAICHI)
OBJECT_ID      = 2006-002A
CENTER_NAME    = EARTH
REF_FRAME      = TEME
TIME_SYSTEM    = UTC
MEAN_ELEMENT_THEORY = SGP/SGP4

EPOCH          = 2026-02-05T18:40:12.563616
MEAN_MOTION    = 14.69703869
ECCENTRICITY   = .00020358
INCLINATION    = 98.1167
RA_OF_ASC_NODE = 352.9077
ARG_OF_PERICENTER = 68.3188
MEAN_ANOMALY   = 291.8234

EPHEMERIS_TYPE = 0
CLASSIFICATION_TYPE = U
NORAD_CAT_ID   = 28931
ELEMENT_SET_NO = 999
REV_AT_EPOCH   = 6879
BSTAR          = .39756836E-3
MEAN_MOTION_DOT = .2319E-4
MEAN_MOTION_DDOT = 0

CCSDS_OMM_VERS = 2.0
CREATION_DATE  = 
ORIGINATOR     = 

OBJECT_NAME    = H-2A R/B
OBJECT_ID      = 2006-002B
CENTER_NAME    = EARTH
REF_FRAME      = TEME
TIME_SYSTEM    = UTC
MEAN_ELEMENT_THEORY = SGP/SGP4

EPOCH          = 2026-02-05T22:17:26.813184
MEAN_MOTION    = 15.15785430
ECCENTRICITY   = .0053011
INCLINATION    = 98.2365
RA_OF_ASC_NODE = 181.2515
ARG_OF_PERICENTER = 350.5681
MEAN_ANOMALY   = 9.4548

EPHEMERIS_TYPE = 0
CLASSIFICATION_TYPE = U
NORAD_CAT_ID   = 28932
ELEMENT_SET_NO = 999
REV_AT_EPOCH   = 8962
BSTAR          = .64452E-3
MEAN_MOTION_DOT = .12682E-3
MEAN_MOTION_DDOT = 0

CCSDS_OMM_VERS = 2.0
CREATION_DATE  = 
ORIGINATOR     = 

OBJECT_NAME    = RESURS-DK 1
OBJECT_ID      = 2006-021A
CENTER_NAME    = EARTH
REF_FRAME      = TEME
TIME_SYSTEM    = UTC
MEAN_ELEMENT_THEORY = SGP/SGP4

EPOCH          = 2026-02-05T22:13:37.775424
MEAN_MOTION    = 15.12555233
ECCENTRICITY   = .0004852
INCLINATION    = 69.9351
RA_OF_ASC_NODE = 319.1750
ARG_OF_PERICENTER = 207.6347
MEAN_ANOMALY   = 152.4561

EPHEMERIS_TYPE = 0
CLASSIFICATION_TYPE = U
NORAD_CAT_ID   = 29228
ELEMENT_SET_NO = 999
REV_AT_EPOCH   = 8272
BSTAR          = .26201E-3
MEAN_MOTION_DOT = .4474E-4
MEAN_MOTION_DDOT = 0

CCSDS_OMM_VERS = 2.0
CREATION_DATE  = 
ORIGINATOR     = 

OBJECT_NAME    = CZ-4B R/B
OBJECT_ID      = 2006-046C
CENTER_NAME    = EARTH
REF_FRAME      = TEME
TIME_SYSTEM    = UTC
MEAN_ELEMENT_THEORY = SGP/SGP4

EPOCH          = 2026-02-06T00:11:37.139136
MEAN_MOTION    = 15.16558548
ECCENTRICITY   = .0033978
INCLINATION    = 97.5649
RA_OF_ASC_NODE = 81.9991
ARG_OF_PERICENTER = 20.0231
MEAN_ANOMALY   = 340.2326

EPHEMERIS_TYPE = 0
CLASSIFICATION_TYPE = U
NORAD_CAT_ID   = 29507
ELEMENT_SET_NO = 999
REV_AT_EPOCH   = 5524
BSTAR          = .38706E-3
MEAN_MOTION_DOT = .7597E-4
MEAN_MOTION_DDOT = 0

CCSDS_OMM_VERS = 2.0
CREATION_DATE  = 
ORIGINATOR     = 

OBJECT_NAME    = CZ-2C R/B
OBJECT_ID      = 2007-010B
CENTER_NAME    = EARTH
REF_FRAME      = TEME
TIME_SYSTEM    = UTC
MEAN_ELEMENT_THEORY = SGP/SGP4

EPOCH          = 2026-02-05T21:10:36.119136
MEAN_MOTION    = 14.20235017
ECCENTRICITY   = .0059442
INCLINATION    = 98.3970
RA_OF_ASC_NODE = 151.7589
ARG_OF_PERICENTER = 27.7511
MEAN_ANOMALY   = 332.6817

EPHEMERIS_TYPE = 0
CLASSIFICATION_TYPE = U
NORAD_CAT_ID   = 31114
ELEMENT_SET_NO = 999
REV_AT_EPOCH   = 97520
BSTAR          = .89478E-4
MEAN_MOTION_DOT = .154E-5
MEAN_MOTION_DDOT = 0

CCSDS_OMM_VERS = 2.0
CREATION_DATE  = 
ORIGINATOR     = 

OBJECT_NAME    = COSMO-SKYMED 1
OBJECT_ID      = 2007-023A
CENTER_NAME    = EARTH
REF_FRAME      = TEME
TIME_SYSTEM    = UTC
MEAN_ELEMENT_THEORY = SGP/SGP4

EPOCH          = 2026-02-06T04:04:10.125696
MEAN_MOTION    = 14.96287625
ECCENTRICITY   = .0001032
INCLINATION    = 97.8856
RA_OF_ASC_NODE = 227.9562
ARG_OF_PERICENTER = 74.0234
MEAN_ANOMALY   = 286.1100

EPHEMERIS_TYPE = 0
CLASSIFICATION_TYPE = U
NORAD_CAT_ID   = 31598
ELEMENT_SET_NO = 999
REV_AT_EPOCH   = 1019
BSTAR          = .57748E-3
MEAN_MOTION_DOT = .6468E-4
MEAN_MOTION_DDOT = 0

CCSDS_OMM_VERS = 2.0
CREATION_DATE  = 
ORIGINATOR     = 

OBJECT_NAME    = COSMOS 2428
OBJECT_ID      = 2007-029A
CENTER_NAME    = EARTH
REF_FRAME      = TEME
TIME_SYSTEM    = UTC
MEAN_ELEMENT_THEORY = SGP/SGP4

EPOCH          = 2026-02-06T00:44:21.060384
MEAN_MOTION    = 14.12930847
ECCENTRICITY   = .0007132
INCLINATION    = 70.9397
RA_OF_ASC_NODE = 269.8006
ARG_OF_PERICENTER = 312.1063
MEAN_ANOMALY   = 47.9451

EPHEMERIS_TYPE = 0
CLASSIFICATION_TYPE = U
NORAD_CAT_ID   = 31792
ELEMENT_SET_NO = 999
REV_AT_EPOCH   = 95962
BSTAR          = .21986E-3
MEAN_MOTION_DOT = .362E-5
MEAN_MOTION_DDOT = 0

CCSDS_OMM_VERS = 2.0
CREATION_DATE  = 
ORIGINATOR     = 

OBJECT_NAME    = SL-16 R/B
OBJECT_ID      = 2007-029B
CENTER_NAME    = EARTH
REF_FRAME      = TEME
TIME_SYSTEM    = UTC
MEAN_ELEMENT_THEORY = SGP/SGP4

EPOCH          = 2026-02-06T01:02:02.301216
MEAN_MOTION    = 14.14829359
ECCENTRICITY   = .000187
INCLINATION    = 70.9731
RA_OF_ASC_NODE = 238.9068
ARG_OF_PERICENTER = 275.8819
MEAN_ANOMALY   = 205.8255

EPHEMERIS_TYPE = 0
CLASSIFICATION_TYPE = U
NORAD_CAT_ID   = 31793
ELEMENT_SET_NO = 999
REV_AT_EPOCH   = 96089
BSTAR          = .25854E-3
MEAN_MOTION_DOT = .451E-5
MEAN_MOTION_DDOT = 0

CCSDS_OMM_VERS = 2.0
CREATION_DATE  = 
ORIGINATOR     = 

OBJECT_NAME    = KORONAS-FOTON
OBJECT_ID      = 2009-003A
CENTER_NAME    = EARTH
REF_FRAME      = TEME
TIME_SYSTEM    = UTC
MEAN_ELEMENT_THEORY = SGP/SGP4

EPOCH          = 2026-02-06T04:18:56.719296
MEAN_MOTION    = 15.42498455
ECCENTRICITY   = .0008894
INCLINATION    = 82.4329
RA_OF_ASC_NODE = 308.6125
ARG_OF_PERICENTER = 273.1505
MEAN_ANOMALY   = 86.8724

EPHEMERIS_TYPE = 0
CLASSIFICATION_TYPE = U
NORAD_CAT_ID   = 33504
ELEMENT_SET_NO = 999
REV_AT_EPOCH   = 94088
BSTAR          = .31636E-3
MEAN_MOTION_DOT = .13767E-3
MEAN_MOTION_DDOT = 0

CCSDS_OMM_VERS = 2.0
CREATION_DATE  = 
ORIGINATOR     = 

OBJECT_NAME    = CZ-2C R/B
OBJECT_ID      = 2011-030B
CENTER_NAME    = EARTH
REF_FRAME      = TEME
TIME_SYSTEM    = UTC
MEAN_ELEMENT_THEORY = SGP/SGP4

EPOCH          = 2026-02-05T20:38:26.783808
MEAN_MOTION    = 14.81100512
ECCENTRICITY   = .00542245
INCLINATION    = 97.8491
RA_OF_ASC_NODE = 354.7766
ARG_OF_PERICENTER = 93.7461
MEAN_ANOMALY   = 324.5314

EPHEMERIS_TYPE = 0
CLASSIFICATION_TYPE = U
NORAD_CAT_ID   = 37731
ELEMENT_SET_NO = 999
REV_AT_EPOCH   = 78538
BSTAR          = .28585406E-3
MEAN_MOTION_DOT = .2222E-4
MEAN_MOTION_DDOT = 0

CCSDS_OMM_VERS = 2.0
CREATION_DATE  = 
ORIGINATOR     = 

OBJECT_NAME    = H-2A R/B
OBJECT_ID      = 2012-025E
CENTER_NAME    = EARTH
REF_FRAME      = TEME
TIME_SYSTEM    = UTC
MEAN_ELEMENT_THEORY = SGP/SGP4

EPOCH          = 2026-02-05T20:53:17.445120
MEAN_MOTION    = 14.94888976
ECCENTRICITY   = .00461213
INCLINATION    = 98.4683
RA_OF_ASC_NODE = 1.3917
ARG_OF_PERICENTER = 57.6604
MEAN_ANOMALY   = 302.9067

EPHEMERIS_TYPE = 0
CLASSIFICATION_TYPE = U
NORAD_CAT_ID   = 38341
ELEMENT_SET_NO = 999
REV_AT_EPOCH   = 74346
BSTAR          = .49321816E-3
MEAN_MOTION_DOT = .5425E-4
MEAN_MOTION_DDOT = 0

CCSDS_OMM_VERS = 2.0
CREATION_DATE  = 
ORIGINATOR     = 

OBJECT_NAME    = SHIJIAN-16 (SJ-16)
OBJECT_ID      = 2013-057A
CENTER_NAME    = EARTH
REF_FRAME      = TEME
TIME_SYSTEM    = UTC
MEAN_ELEMENT_THEORY = SGP/SGP4

EPOCH          = 2026-02-06T04:28:18.999264
MEAN_MOTION    = 14.92231767
ECCENTRICITY   = .0016939
INCLINATION    = 74.9700
RA_OF_ASC_NODE = 244.7235
ARG_OF_PERICENTER = 190.7414
MEAN_ANOMALY   = 169.3415

EPHEMERIS_TYPE = 0
CLASSIFICATION_TYPE = U
NORAD_CAT_ID   = 39358
ELEMENT_SET_NO = 999
REV_AT_EPOCH   = 66680
BSTAR          = .1275E-3
MEAN_MOTION_DOT = .1274E-4
MEAN_MOTION_DDOT = 0

